OBJECT_NAME,OBJECT_ID,EPOCH,MEAN_MOTION,ECCENTRICITY,INCLINATION,RA_OF_ASC_NODE,ARG_OF_PERICENTER,MEAN_ANOMALY,EPHEMERIS_TYPE,CLASSIFICATION_TYPE,NORAD_CAT_ID,ELEMENT_SET_NO,REV_AT_EPOCH,BSTAR,MEAN_MOTION_DOT,MEAN_MOTION_DDOT
ONEWEB-0475,2022-012AK,2026-07-23T19:45:57.205728,13.17648985,.000168,87.9158,358.5855,116.1834,243.9470,0,U,51655,999,21851,.1118E-3,.56E-6,0
ONEWEB-0490,2022-138A,2026-07-23T07:10:50.244096,13.19725052,.0002147,87.9190,297.7788,104.3413,255.7958,0,U,54113,999,18159,.94639E-4,.51E-6,0
ONEWEB-0492,2022-138B,2026-07-23T16:53:06.248256,13.19723754,.0002305,87.9182,297.6972,101.1683,258.9709,0,U,54114,999,18165,-.12226E-3,-.36E-6,0
ONEWEB-0495,2022-138C,2026-07-23T12:42:54.401184,13.19727011,.0002427,87.9184,297.7345,113.7842,246.3545,0,U,54115,999,18161,.10142E-3,.54E-6,0
ONEWEB-0497,2022-138D,2026-07-23T16:39:27.287712,13.19723981,.0002074,87.9187,297.6960,102.6300,257.5065,0,U,54116,999,18162,-.70515E-4,-.15E-6,0
ONEWEB-0499,2022-138E,2026-07-23T16:15:35.269920,13.19724342,.0002064,87.9184,297.7061,107.2560,252.8798,0,U,54117,999,18163,-.40437E-4,-.3E-7,0
ONEWEB-0500,2022-138F,2026-07-23T12:40:38.669376,13.19726532,.0002078,87.9188,297.7322,97.7840,262.3528,0,U,54118,999,18162,.1729E-3,.82E-6,0
ONEWEB-0501,2022-138G,2026-07-23T13:23:51.808128,13.19726855,.0002267,87.9192,297.7267,110.0663,250.0714,0,U,54119,999,18160,-.40712E-4,-.3E-7,0
ONEWEB-0502,2022-138H,2026-07-23T16:41:43.531872,13.19723928,.0002021,87.9192,297.6885,106.8915,253.2439,0,U,54120,999,18164,-.50653E-4,-.7E-7,0
ONEWEB-0503,2022-138J,2026-07-23T07:19:55.550784,13.19726584,.000176,87.9191,297.7724,101.0568,259.0763,0,U,54121,999,18158,.77048E-4,.44E-6,0
ONEWEB-0504,2022-138K,2026-07-23T12:29:15.500256,13.19726990,.0001997,87.9191,297.7340,107.3786,252.7565,0,U,54122,999,18162,.31614E-3,.14E-5,0
ONEWEB-0505,2022-138L,2026-07-23T16:03:03.818880,13.19723936,.0002181,87.9188,297.7046,111.9344,248.2021,0,U,54123,999,18162,.21566E-3,.99E-6,0
ONEWEB-0506,2022-138M,2026-07-23T17:15:52.392960,13.19725758,.0002159,87.9201,297.6939,106.7626,253.3744,0,U,54124,999,18162,-.13338E-3,-.4E-6,0
ONEWEB-0507,2022-138N,2026-07-23T06:50:21.128928,13.19726338,.0002179,87.9183,297.7882,105.3550,254.7824,0,U,54125,999,18161,-.30586E-3,-.109E-5,0
ONEWEB-0508,2022-138P,2026-07-23T15:51:41.905152,13.19726186,.0002377,87.9184,297.7127,107.5867,252.5525,0,U,54126,999,18164,.24613E-4,.23E-6,0
ONEWEB-0509,2022-138Q,2026-07-23T06:09:25.570944,13.19725069,.0002102,87.9193,297.7864,104.4451,255.6915,0,U,54127,999,18156,.45804E-4,.31E-6,0
ONEWEB-0510,2022-138R,2026-07-23T04:36:50.989248,13.20762896,.00018,87.9176,267.2605,84.7883,275.3455,0,U,54128,999,18403,-.22837E-2,-.915E-5,0
ONEWEB-0511,2022-138S,2026-07-23T16:59:55.843872,13.19724492,.0001815,87.9192,297.6977,105.8106,254.3227,0,U,54129,999,18165,-.2186E-3,-.75E-6,0
ONEWEB-0512,2022-138T,2026-07-23T16:48:33.017760,13.19724021,.0002042,87.9180,297.7018,110.5248,249.6104,0,U,54130,999,18162,-.10047E-3,-.27E-6,0
ONEWEB-0513,2022-138U,2026-07-23T16:35:00.424032,13.20269703,.0001963,87.9188,297.6434,126.0849,234.0466,0,U,54131,999,18153,-.82991E-5,.1E-6,0
ONEWEB-0514,2022-138V,2026-07-23T17:11:18.212928,13.19724489,.0001945,87.9190,297.6957,97.0518,263.0836,0,U,54132,999,18164,-.47431E-4,-.6E-7,0
ONEWEB-0515,2022-138W,2026-07-23T04:17:26.903040,13.20772853,.000259,87.9180,267.2596,81.8331,278.3096,0,U,54133,999,18405,.97026E-4,.52E-6,0
ONEWEB-0516,2022-138X,2026-07-23T16:34:54.825312,13.19724114,.0002181,87.9182,297.7039,100.9649,259.1729,0,U,54134,999,18164,-.77475E-4,-.18E-6,0
ONEWEB-0517,2022-138Y,2026-07-23T12:26:59.136000,13.19727016,.0001749,87.9187,297.7331,101.8950,258.2379,0,U,54135,999,18162,.19303E-3,.9E-6,0
ONEWEB-0518,2022-138Z,2026-07-23T16:32:38.754816,13.19724333,.000224,87.9183,297.7064,98.4980,261.6406,0,U,54136,999,18164,.25842E-4,.23E-6,0
ONEWEB-0519,2022-138AA,2026-07-23T13:30:40.392000,13.19724525,.0001824,87.9190,297.7256,100.0431,260.0907,0,U,54137,999,18163,.15458E-4,.19E-6,0
ONEWEB-0520,2022-138AB,2026-07-23T16:09:53.844768,13.19724833,.0002192,87.9187,297.7033,106.7272,253.4101,0,U,54138,999,18163,.22718E-4,.22E-6,0
ONEWEB-0521,2022-138AC,2026-07-23T16:57:38.488608,13.19724154,.0001797,87.9196,297.6867,98.4050,261.7287,0,U,54139,999,18158,-.19136E-3,-.64E-6,0
ONEWEB-0522,2022-138AD,2026-07-23T16:28:05.153664,13.19724030,.0002042,87.9192,297.6932,105.0191,255.1168,0,U,54140,999,18162,.91829E-4,.5E-6,0
ONEWEB-0523,2022-138AE,2026-07-23T11:14:23.895168,13.20769774,.0001953,87.9176,267.2111,73.8219,286.3129,0,U,54141,999,18409,-.14049E-3,-.44E-6,0
