ONEWEB-0475             
1 51655U 22012AK  26204.82357877  .00000056  00000+0  11180-3 0  9994
2 51655  87.9158 358.5855 0001680 116.1834 243.9470 13.17648985218518
ONEWEB-0490             
1 54113U 22138A   26204.29919264  .00000051  00000+0  94639-4 0  9996
2 54113  87.9190 297.7788 0002147 104.3413 255.7958 13.19725052181598
ONEWEB-0492             
1 54114U 22138B   26204.70354454 -.00000036  00000+0 -12226-3 0  9993
2 54114  87.9182 297.6972 0002305 101.1683 258.9709 13.19723754181657
ONEWEB-0495             
1 54115U 22138C   26204.52979631  .00000054  00000+0  10142-3 0  9997
2 54115  87.9184 297.7345 0002427 113.7842 246.3545 13.19727011181611
ONEWEB-0497             
1 54116U 22138D   26204.69406583 -.00000015  00000+0 -70515-4 0  9997
2 54116  87.9187 297.6960 0002074 102.6300 257.5065 13.19723981181625
ONEWEB-0499             
1 54117U 22138E   26204.67749155 -.00000003  00000+0 -40437-4 0  9998
2 54117  87.9184 297.7061 0002064 107.2560 252.8798 13.19724342181638
ONEWEB-0500             
1 54118U 22138F   26204.52822534  .00000082  00000+0  17290-3 0  9991
2 54118  87.9188 297.7322 0002078  97.7840 262.3528 13.19726532181621
ONEWEB-0501             
1 54119U 22138G   26204.55823852 -.00000003  00000+0 -40712-4 0  9990
2 54119  87.9192 297.7267 0002267 110.0663 250.0714 13.19726855181604
ONEWEB-0502             
1 54120U 22138H   26204.69564273 -.00000007  00000+0 -50653-4 0  9995
2 54120  87.9192 297.6885 0002021 106.8915 253.2439 13.19723928181643
ONEWEB-0503             
1 54121U 22138J   26204.30550406  .00000044  00000+0  77048-4 0  9993
2 54121  87.9191 297.7724 0001760 101.0568 259.0763 13.19726584181584
ONEWEB-0504             
1 54122U 22138K   26204.52031829  .00000140  00000+0  31614-3 0  9996
2 54122  87.9191 297.7340 0001997 107.3786 252.7565 13.19726990181628
ONEWEB-0505             
1 54123U 22138L   26204.66879420  .00000099  00000+0  21566-3 0  9997
2 54123  87.9188 297.7046 0002181 111.9344 248.2021 13.19723936181629
ONEWEB-0506             
1 54124U 22138M   26204.71935640 -.00000040  00000+0 -13338-3 0  9997
2 54124  87.9201 297.6939 0002159 106.7626 253.3744 13.19725758181629
ONEWEB-0507             
1 54125U 22138N   26204.28496677 -.00000109  00000+0 -30586-3 0  9992
2 54125  87.9183 297.7882 0002179 105.3550 254.7824 13.19726338181618
ONEWEB-0508             
1 54126U 22138P   26204.66090168  .00000023  00000+0  24613-4 0  9998
2 54126  87.9184 297.7127 0002377 107.5867 252.5525 13.19726186181645
ONEWEB-0509             
1 54127U 22138Q   26204.25654596  .00000031  00000+0  45804-4 0  9999
2 54127  87.9193 297.7864 0002102 104.4451 255.6915 13.19725069181562
ONEWEB-0510             
1 54128U 22138R   26204.19225682 -.00000915  00000+0 -22837-2 0  9995
2 54128  87.9176 267.2605 0001800  84.7883 275.3455 13.20762896184036
ONEWEB-0511             
1 54129U 22138S   26204.70828523 -.00000075  00000+0 -21860-3 0  9999
2 54129  87.9192 297.6977 0001815 105.8106 254.3227 13.19724492181650
ONEWEB-0512             
1 54130U 22138T   26204.70038215 -.00000027  00000+0 -10047-3 0  9994
2 54130  87.9180 297.7018 0002042 110.5248 249.6104 13.19724021181625
ONEWEB-0513             
1 54131U 22138U   26204.69097713  .00000010  00000+0 -82991-5 0  9991
2 54131  87.9188 297.6434 0001963 126.0849 234.0466 13.20269703181537
ONEWEB-0514             
1 54132U 22138V   26204.71618302 -.00000006  00000+0 -47431-4 0  9993
2 54132  87.9190 297.6957 0001945  97.0518 263.0836 13.19724489181641
ONEWEB-0515             
1 54133U 22138W   26204.17878360  .00000052  00000+0  97026-4 0  9990
2 54133  87.9180 267.2596 0002590  81.8331 278.3096 13.20772853184059
ONEWEB-0516             
1 54134U 22138X   26204.69091233 -.00000018  00000+0 -77475-4 0  9994
2 54134  87.9182 297.7039 0002181 100.9649 259.1729 13.19724114181640
ONEWEB-0517             
1 54135U 22138Y   26204.51874000  .00000090  00000+0  19303-3 0  9990
2 54135  87.9187 297.7331 0001749 101.8950 258.2379 13.19727016181628
ONEWEB-0518             
1 54136U 22138Z   26204.68933744  .00000023  00000+0  25842-4 0  9992
2 54136  87.9183 297.7064 0002240  98.4980 261.6406 13.19724333181649
ONEWEB-0519             
1 54137U 22138AA  26204.56296750  .00000019  00000+0  15458-4 0  9996
2 54137  87.9190 297.7256 0001824 100.0431 260.0907 13.19724525181630
ONEWEB-0520             
1 54138U 22138AB  26204.67353987  .00000022  00000+0  22718-4 0  9996
2 54138  87.9187 297.7033 0002192 106.7272 253.4101 13.19724833181639
ONEWEB-0521             
1 54139U 22138AC  26204.70669547 -.00000064  00000+0 -19136-3 0  9990
2 54139  87.9196 297.6867 0001797  98.4050 261.7287 13.19724154181582
ONEWEB-0522             
1 54140U 22138AD  26204.68617076  .00000050  00000+0  91829-4 0  9992
2 54140  87.9192 297.6932 0002042 105.0191 255.1168 13.19724030181621
ONEWEB-0523             
1 54141U 22138AE  26204.46833212 -.00000044  00000+0 -14049-3 0  9994
2 54141  87.9176 267.2111 0001953  73.8219 286.3129 13.20769774184092
